{
  "type": "FeatureCollection",
  "name": "Donald Three Card Courts — Official Surfaces v0.1",
  "authority_created": false,
  "proof_inferred": false,
  "precision_rule": "Public institutional geography only. No private-person tracking.",
  "features": [
    {
      "type": "Feature",
      "geometry": {
        "type": "Point",
        "coordinates": [-74.0060, 40.7128]
      },
      "properties": {
        "surface_id": "SDNY_NEW_YORK",
        "label": "Southern District of New York / Manhattan federal rail",
        "precision": "CITY_APPROX",
        "jurisdiction": "S.D.N.Y.",
        "event_examples": [
          "Michael Cohen guilty plea 2018-08-21",
          "United States v. Epstein 2019",
          "SDNY flight-record email chain 2020-01-07/08",
          "United States v. Maxwell 2020"
        ],
        "court_or_executive": "COURT_AND_USAO_SURFACE",
        "misconduct_inferred": false
      }
    },
    {
      "type": "Feature",
      "geometry": null,
      "properties": {
        "surface_id": "NDFL_MAXWELL_PROFFER",
        "label": "Northern District of Florida U.S. Attorney's Office",
        "precision": "DISTRICT_ONLY",
        "jurisdiction": "N.D. Fla.",
        "event_start": "2025-07-24",
        "event_end": "2025-07-25",
        "event": "Todd Blanche / Ghislaine Maxwell recorded proffer",
        "court_or_executive": "EXECUTIVE_BRANCH_USAO",
        "court_event": false,
        "location_hold_reason": "Signed proffer agreement identifies the N.D. Florida USAO but does not, in the cited receipt, bind a specific branch-office city.",
        "misconduct_inferred": false
      }
    },
    {
      "type": "Feature",
      "geometry": null,
      "properties": {
        "surface_id": "SDFL_FLORIDA",
        "label": "Southern District of Florida federal rail",
        "precision": "DISTRICT_ONLY",
        "jurisdiction": "S.D. Fla.",
        "event_examples": [
          "Florida Epstein-related federal court records indexed in DOJ library",
          "Trump classified-documents indictment unsealed 2023-06-08/09"
        ],
        "court_or_executive": "FEDERAL_COURT_DISTRICT",
        "misconduct_inferred": false
      }
    },
    {
      "type": "Feature",
      "geometry": {
        "type": "Point",
        "coordinates": [-77.0369, 38.9072]
      },
      "properties": {
        "surface_id": "WASHINGTON_DC",
        "label": "Washington, D.C. DOJ / Special Counsel / D.C. federal rail",
        "precision": "CITY_APPROX",
        "jurisdiction": "District of Columbia / DOJ HQ",
        "event_examples": [
          "Special Counsel classified-documents statement 2023-06-09",
          "D.C. election indictment announced 2023-08-01",
          "DOJ Epstein archive aggregation / publication 2026-01-30"
        ],
        "court_or_executive": "MULTIPLE_OFFICIAL_SURFACES",
        "misconduct_inferred": false
      }
    }
  ],
  "timeline_membrane": [
    "SAME_PERSON != SAME_CASE",
    "SAME_DEPARTMENT != SAME_CUSTODIAN",
    "LATER_PROFFER != EARLIER_COURT_FINDING",
    "GEO_MATCH != CAUSATION",
    "JURISDICTION_SWITCH != CORRUPTION"
  ]
}
